[{"OBJECT_NAME":"QIANFAN-27","OBJECT_ID":"2024-185J","EPOCH":"2026-03-09T22:56:55.395744","MEAN_MOTION":14.27448593,"ECCENTRICITY":0.00081881,"INCLINATION":88.9753,"RA_OF_ASC_NODE":66.6975,"ARG_OF_PERICENTER":20.0445,"MEAN_ANOMALY":340.107,"EPHEMERIS_TYPE":0,"CLASSIFICATION_TYPE":"U","NORAD_CAT_ID":61560,"ELEMENT_SET_NO":999,"REV_AT_EPOCH":8260,"BSTAR":0.00025107237,"MEAN_MOTION_DOT":6.31e-6,"MEAN_MOTION_DDOT":0},{"OBJECT_NAME":"CZ-6A DEB","OBJECT_ID":"2024-140PR","EPOCH":"2026-03-09T13:36:18.125280","MEAN_MOTION":14.18698936,"ECCENTRICITY":0.00521232,"INCLINATION":88.9951,"RA_OF_ASC_NODE":286.0606,"ARG_OF_PERICENTER":148.5631,"MEAN_ANOMALY":211.8692,"EPHEMERIS_TYPE":0,"CLASSIFICATION_TYPE":"U","NORAD_CAT_ID":61123,"ELEMENT_SET_NO":999,"REV_AT_EPOCH":8005,"BSTAR":0.00036604153,"MEAN_MOTION_DOT":7.84e-6,"MEAN_MOTION_DDOT":0}]
